{"fetched_at":"2026-07-18T17:29:55.985Z","source":"https://celestrak.org/NORAD/elements/gp.php?NAME=HAWK&FORMAT=JSON","constellation":"hawkeye-360","records":[{"OBJECT_NAME":"HAWK-7B","OBJECT_ID":"2023-054R","EPOCH":"2026-07-18T03:52:00.039648","CLASSIFICATION_TYPE":"U","MEAN_MOTION":15.27648841,"ECCENTRICITY":0.00009998,"INCLINATION":97.2681,"RA_OF_ASC_NODE":83.9855,"ARG_OF_PERICENTER":10.0646,"MEAN_ANOMALY":350.0613,"EPHEMERIS_TYPE":0,"NORAD_CAT_ID":56193,"ELEMENT_SET_NO":999,"REV_AT_EPOCH":18175,"BSTAR":0.00010877939,"MEAN_MOTION_DOT":0.00002867,"MEAN_MOTION_DDOT":0},{"OBJECT_NAME":"HAWK-7C","OBJECT_ID":"2023-054Y","EPOCH":"2026-07-18T03:51:48.960576","CLASSIFICATION_TYPE":"U","MEAN_MOTION":15.27651601,"ECCENTRICITY":0.00006263,"INCLINATION":97.2658,"RA_OF_ASC_NODE":84.7447,"ARG_OF_PERICENTER":338.3303,"MEAN_ANOMALY":21.791,"EPHEMERIS_TYPE":0,"NORAD_CAT_ID":56200,"ELEMENT_SET_NO":999,"REV_AT_EPOCH":18175,"BSTAR":0.00010951301,"MEAN_MOTION_DOT":0.00002888,"MEAN_MOTION_DDOT":0},{"OBJECT_NAME":"HAWK-8A","OBJECT_ID":"2024-066B","EPOCH":"2026-07-18T00:43:20.253792","CLASSIFICATION_TYPE":"U","MEAN_MOTION":14.99293479,"ECCENTRICITY":0.00030999,"INCLINATION":45.5944,"RA_OF_ASC_NODE":117.1561,"ARG_OF_PERICENTER":229.7006,"MEAN_ANOMALY":130.3605,"EPHEMERIS_TYPE":0,"NORAD_CAT_ID":59443,"ELEMENT_SET_NO":999,"REV_AT_EPOCH":12446,"BSTAR":0.00012302182,"MEAN_MOTION_DOT":0.00001293,"MEAN_MOTION_DDOT":0},{"OBJECT_NAME":"HAWK-8B","OBJECT_ID":"2024-066D","EPOCH":"2026-07-18T03:55:54.848064","CLASSIFICATION_TYPE":"U","MEAN_MOTION":14.99294094,"ECCENTRICITY":0.00033699,"INCLINATION":45.618,"RA_OF_ASC_NODE":118.4517,"ARG_OF_PERICENTER":235.6482,"MEAN_ANOMALY":124.4081,"EPHEMERIS_TYPE":0,"NORAD_CAT_ID":59445,"ELEMENT_SET_NO":999,"REV_AT_EPOCH":12447,"BSTAR":0.000042646744,"MEAN_MOTION_DOT":0.00000297,"MEAN_MOTION_DDOT":0},{"OBJECT_NAME":"HAWK-9A","OBJECT_ID":"2024-066E","EPOCH":"2026-07-18T04:28:59.983104","CLASSIFICATION_TYPE":"U","MEAN_MOTION":14.99220314,"ECCENTRICITY":0.00030257,"INCLINATION":45.6097,"RA_OF_ASC_NODE":116.9959,"ARG_OF_PERICENTER":218.687,"MEAN_ANOMALY":141.3795,"EPHEMERIS_TYPE":0,"NORAD_CAT_ID":59446,"ELEMENT_SET_NO":999,"REV_AT_EPOCH":12448,"BSTAR":0.000067283924,"MEAN_MOTION_DOT":0.00000601,"MEAN_MOTION_DDOT":0},{"OBJECT_NAME":"HAWK-9C","OBJECT_ID":"2024-066G","EPOCH":"2026-07-18T01:17:28.488480","CLASSIFICATION_TYPE":"U","MEAN_MOTION":14.99218815,"ECCENTRICITY":0.00028893,"INCLINATION":45.6067,"RA_OF_ASC_NODE":116.7815,"ARG_OF_PERICENTER":203.4291,"MEAN_ANOMALY":156.6459,"EPHEMERIS_TYPE":0,"NORAD_CAT_ID":59448,"ELEMENT_SET_NO":999,"REV_AT_EPOCH":12446,"BSTAR":0.00006459134,"MEAN_MOTION_DOT":0.00000568,"MEAN_MOTION_DDOT":0},{"OBJECT_NAME":"HAWK-8C","OBJECT_ID":"2024-066H","EPOCH":"2026-07-18T03:55:08.700096","CLASSIFICATION_TYPE":"U","MEAN_MOTION":14.99294056,"ECCENTRICITY":0.00029645,"INCLINATION":45.6075,"RA_OF_ASC_NODE":117.4689,"ARG_OF_PERICENTER":240.8826,"MEAN_ANOMALY":119.1759,"EPHEMERIS_TYPE":0,"NORAD_CAT_ID":59449,"ELEMENT_SET_NO":999,"REV_AT_EPOCH":12447,"BSTAR":0.000060029324,"MEAN_MOTION_DOT":0.00000513,"MEAN_MOTION_DDOT":0},{"OBJECT_NAME":"HAWK-9B","OBJECT_ID":"2024-066J","EPOCH":"2026-07-18T02:53:29.426208","CLASSIFICATION_TYPE":"U","MEAN_MOTION":14.99215319,"ECCENTRICITY":0.00031685,"INCLINATION":45.6123,"RA_OF_ASC_NODE":118.2756,"ARG_OF_PERICENTER":199.6776,"MEAN_ANOMALY":160.3983,"EPHEMERIS_TYPE":0,"NORAD_CAT_ID":59450,"ELEMENT_SET_NO":999,"REV_AT_EPOCH":12447,"BSTAR":0.000068857715,"MEAN_MOTION_DOT":0.0000062,"MEAN_MOTION_DDOT":0},{"OBJECT_NAME":"HAWK-10A","OBJECT_ID":"2024-149CA","EPOCH":"2026-07-18T04:38:24.098208","CLASSIFICATION_TYPE":"U","MEAN_MOTION":14.96594269,"ECCENTRICITY":0.00028044,"INCLINATION":97.6884,"RA_OF_ASC_NODE":274.5721,"ARG_OF_PERICENTER":350.8511,"MEAN_ANOMALY":9.2659,"EPHEMERIS_TYPE":0,"NORAD_CAT_ID":60540,"ELEMENT_SET_NO":999,"REV_AT_EPOCH":10462,"BSTAR":0.000024222941,"MEAN_MOTION_DOT":0.00000219,"MEAN_MOTION_DDOT":0},{"OBJECT_NAME":"HAWK-10B","OBJECT_ID":"2024-149CF","EPOCH":"2026-07-18T04:38:12.448032","CLASSIFICATION_TYPE":"U","MEAN_MOTION":14.96593274,"ECCENTRICITY":0.0005104,"INCLINATION":97.6802,"RA_OF_ASC_NODE":273.8955,"ARG_OF_PERICENTER":3.5893,"MEAN_ANOMALY":356.5364,"EPHEMERIS_TYPE":0,"NORAD_CAT_ID":60545,"ELEMENT_SET_NO":999,"REV_AT_EPOCH":10462,"BSTAR":0.000029196781,"MEAN_MOTION_DOT":0.00000275,"MEAN_MOTION_DDOT":0},{"OBJECT_NAME":"HAWK-10C","OBJECT_ID":"2024-149DM","EPOCH":"2026-07-18T04:38:41.936352","CLASSIFICATION_TYPE":"U","MEAN_MOTION":14.96592107,"ECCENTRICITY":0.00023852,"INCLINATION":97.672,"RA_OF_ASC_NODE":273.203,"ARG_OF_PERICENTER":335.7363,"MEAN_ANOMALY":24.3746,"EPHEMERIS_TYPE":0,"NORAD_CAT_ID":60575,"ELEMENT_SET_NO":999,"REV_AT_EPOCH":10462,"BSTAR":0.000035503433,"MEAN_MOTION_DOT":0.00000347,"MEAN_MOTION_DDOT":0},{"OBJECT_NAME":"HAWK-11B","OBJECT_ID":"2024-247C","EPOCH":"2026-07-18T04:08:17.682432","CLASSIFICATION_TYPE":"U","MEAN_MOTION":15.30693726,"ECCENTRICITY":0.00025206,"INCLINATION":45.0157,"RA_OF_ASC_NODE":119.8549,"ARG_OF_PERICENTER":41.6008,"MEAN_ANOMALY":318.5068,"EPHEMERIS_TYPE":0,"NORAD_CAT_ID":62379,"ELEMENT_SET_NO":999,"REV_AT_EPOCH":8775,"BSTAR":0.00013746967,"MEAN_MOTION_DOT":0.00003852,"MEAN_MOTION_DDOT":0},{"OBJECT_NAME":"HAWK-11C","OBJECT_ID":"2024-247E","EPOCH":"2026-07-18T04:07:39.129888","CLASSIFICATION_TYPE":"U","MEAN_MOTION":15.3068992,"ECCENTRICITY":0.00034351,"INCLINATION":45.0044,"RA_OF_ASC_NODE":119.1848,"ARG_OF_PERICENTER":27.4377,"MEAN_ANOMALY":332.6688,"EPHEMERIS_TYPE":0,"NORAD_CAT_ID":62381,"ELEMENT_SET_NO":999,"REV_AT_EPOCH":8775,"BSTAR":0.00013909207,"MEAN_MOTION_DOT":0.00003901,"MEAN_MOTION_DDOT":0},{"OBJECT_NAME":"HAWK-11A","OBJECT_ID":"2024-247F","EPOCH":"2026-07-18T04:07:47.260992","CLASSIFICATION_TYPE":"U","MEAN_MOTION":15.30686521,"ECCENTRICITY":0.00029123,"INCLINATION":44.9938,"RA_OF_ASC_NODE":118.5099,"ARG_OF_PERICENTER":26.358,"MEAN_ANOMALY":333.7452,"EPHEMERIS_TYPE":0,"NORAD_CAT_ID":62382,"ELEMENT_SET_NO":999,"REV_AT_EPOCH":8775,"BSTAR":0.00014165826,"MEAN_MOTION_DOT":0.00003978,"MEAN_MOTION_DDOT":0},{"OBJECT_NAME":"HAWK-12C","OBJECT_ID":"2025-138A","EPOCH":"2026-07-17T22:50:13.299648","CLASSIFICATION_TYPE":"U","MEAN_MOTION":15.18418048,"ECCENTRICITY":0.00150697,"INCLINATION":97.4353,"RA_OF_ASC_NODE":200.8776,"ARG_OF_PERICENTER":42.5235,"MEAN_ANOMALY":317.7164,"EPHEMERIS_TYPE":0,"NORAD_CAT_ID":64621,"ELEMENT_SET_NO":999,"REV_AT_EPOCH":5853,"BSTAR":0.0001131073,"MEAN_MOTION_DOT":0.00002265,"MEAN_MOTION_DDOT":0},{"OBJECT_NAME":"HAWK-12B","OBJECT_ID":"2025-138B","EPOCH":"2026-07-17T22:50:28.373856","CLASSIFICATION_TYPE":"U","MEAN_MOTION":15.18417402,"ECCENTRICITY":0.00139305,"INCLINATION":97.4476,"RA_OF_ASC_NODE":201.5757,"ARG_OF_PERICENTER":38.559,"MEAN_ANOMALY":321.6637,"EPHEMERIS_TYPE":0,"NORAD_CAT_ID":64622,"ELEMENT_SET_NO":999,"REV_AT_EPOCH":5853,"BSTAR":0.00011270133,"MEAN_MOTION_DOT":0.00002256,"MEAN_MOTION_DDOT":0}]}
