HAWK-7B                 
1 56193U 23054R   26199.16111157  .00002867  00000+0  10878-3 0  9997
2 56193  97.2681  83.9855 0000999  10.0646 350.0613 15.27648841181757
HAWK-7C                 
1 56200U 23054Y   26199.16098334  .00002888  00000+0  10951-3 0  9992
2 56200  97.2658  84.7447 0000626 338.3303  21.7910 15.27651601181759
HAWK-8A                 
1 59443U 24066B   26199.03009553  .00001293  00000+0  12302-3 0  9990
2 59443  45.5944 117.1561 0003099 229.7006 130.3605 14.99293479124469
HAWK-8B                 
1 59445U 24066D   26199.16382926  .00000297  00000+0  42647-4 0  9993
2 59445  45.6180 118.4517 0003369 235.6482 124.4081 14.99294094124470
HAWK-9A                 
1 59446U 24066E   26199.18680536  .00000601  00000+0  67284-4 0  9997
2 59446  45.6097 116.9959 0003025 218.6870 141.3795 14.99220314124487
HAWK-9C                 
1 59448U 24066G   26199.05380195  .00000568  00000+0  64591-4 0  9993
2 59448  45.6067 116.7815 0002889 203.4291 156.6459 14.99218815124468
HAWK-8C                 
1 59449U 24066H   26199.16329514  .00000513  00000+0  60029-4 0  9996
2 59449  45.6075 117.4689 0002964 240.8826 119.1759 14.99294056124477
HAWK-9B                 
1 59450U 24066J   26199.12047947  .00000620  00000+0  68858-4 0  9998
2 59450  45.6123 118.2756 0003168 199.6776 160.3983 14.99215319124471
HAWK-10A                
1 60540U 24149CA  26199.19333447  .00000219  00000+0  24223-4 0  9994
2 60540  97.6884 274.5721 0002804 350.8511   9.2659 14.96594269104623
HAWK-10B                
1 60545U 24149CF  26199.19319963  .00000275  00000+0  29197-4 0  9993
2 60545  97.6802 273.8955 0005104   3.5893 356.5364 14.96593274104626
HAWK-10C                
1 60575U 24149DM  26199.19354093  .00000347  00000+0  35503-4 0  9997
2 60575  97.6720 273.2030 0002385 335.7363  24.3746 14.96592107104624
HAWK-11B                
1 62379U 24247C   26199.17242688  .00003852  00000+0  13747-3 0  9993
2 62379  45.0157 119.8549 0002520  41.6008 318.5068 15.30693726 87756
HAWK-11C                
1 62381U 24247E   26199.17198067  .00003901  00000+0  13909-3 0  9992
2 62381  45.0044 119.1848 0003435  27.4377 332.6688 15.30689920 87752
HAWK-11A                
1 62382U 24247F   26199.17207478  .00003978  00000+0  14166-3 0  9990
2 62382  44.9938 118.5099 0002912  26.3580 333.7452 15.30686521 87752
HAWK-12C                
1 64621U 25138A   26198.95154282  .00002265  00000+0  11311-3 0  9994
2 64621  97.4353 200.8776 0015069  42.5235 317.7164 15.18418048 58534
HAWK-12B                
1 64622U 25138B   26198.95171729  .00002256  00000+0  11270-3 0  9994
2 64622  97.4476 201.5757 0013930  38.5590 321.6637 15.18417402 58534
